{"type": "FeatureCollection", "features": [ {"type": "Feature", "properties": {"norad_id": 35703, "name": "COSMOS 2251 DEB", "group": "cosmos-2251-debris", "lat": 35.16805240689681, "lon": 48.962559591537506, "alt_km": 577.9552046917488, "timestamp": "2025-12-15T10:55:21.541282+00:00", "meta": {"OBJECT_NAME": "COSMOS 2251 DEB", "OBJECT_ID": "1993-036APY", "EPOCH": "2025-12-13T10:25:41.808288", "MEAN_MOTION": 14.90369832, "ECCENTRICITY": 0.0064635, "INCLINATION": 74.0427, "RA_OF_ASC_NODE": 41.374, "ARG_OF_PERICENTER": 111.0276, "MEAN_ANOMALY": 249.7836, "EPHEMERIS_TYPE": 0, "CLASSIFICATION_TYPE": "U", "NORAD_CAT_ID": 35703, "ELEMENT_SET_NO": 999, "REV_AT_EPOCH": 66626, "BSTAR": 0.0011888649, "MEAN_MOTION_DOT": 0.00012023, "MEAN_MOTION_DDOT": 0}, "tle": {"line1": "1 35703U 93036APY 25347.43451167  .00012023  00000+0  11889-2 0  9997", "line2": "2 35703  74.0427  41.3740 0064635 111.0276 249.7836 14.90369832666265"}}, "geometry": {"type": "Point", "coordinates": [48.962559591537506, 35.16805240689681]}}, {"type": "Feature", "properties": {"norad_id": 35705, "name": "COSMOS 2251 DEB", "group": "cosmos-2251-debris", "lat": 3.3060967212067145, "lon": 131.54469460464793, "alt_km": 649.9279650698054, "timestamp": "2025-12-15T10:55:21.541292+00:00", "meta": {"OBJECT_NAME": "COSMOS 2251 DEB", "OBJECT_ID": "1993-036AQA", "EPOCH": "2025-12-13T16:30:25.570944", "MEAN_MOTION": 14.72285684, "ECCENTRICITY": 0.00330748, "INCLINATION": 74.2763, "RA_OF_ASC_NODE": 133.9994, "ARG_OF_PERICENTER": 83.0917, "MEAN_ANOMALY": 277.4017, "EPHEMERIS_TYPE": 0, "CLASSIFICATION_TYPE": "U", "NORAD_CAT_ID": 35705, "ELEMENT_SET_NO": 999, "REV_AT_EPOCH": 85940, "BSTAR": 0.003032246, "MEAN_MOTION_DOT": 0.00019351, "MEAN_MOTION_DDOT": 0}, "tle": {"line1": "1 35705U 93036AQA 25347.68779596  .00019351  00000+0  30322-2 0  9999", "line2": "2 35705  74.2763 133.9994 0033074  83.0917 277.4017 14.72285684859405"}}, "geometry": {"type": "Point", "coordinates": [131.54469460464793, 3.3060967212067145]}}, {"type": "Feature", "properties": {"norad_id": 35706, "name": "COSMOS 2251 DEB", "group": "cosmos-2251-debris", "lat": -53.07759964625643, "lon": 35.70257057334588, "alt_km": 1261.9679611614338, "timestamp": "2025-12-15T10:55:21.541302+00:00", "meta": {"OBJECT_NAME": "COSMOS 2251 DEB", "OBJECT_ID": "1993-036AQB", "EPOCH": "2025-12-14T21:08:56.537088", "MEAN_MOTION": 13.65929011, "ECCENTRICITY": 0.03404676, "INCLINATION": 73.8893, "RA_OF_ASC_NODE": 59.2702, "ARG_OF_PERICENTER": 108.6738, "MEAN_ANOMALY": 255.1655, "EPHEMERIS_TYPE": 0, "CLASSIFICATION_TYPE": "U", "NORAD_CAT_ID": 35706, "ELEMENT_SET_NO": 999, "REV_AT_EPOCH": 62091, "BSTAR": 0.00069767153, "MEAN_MOTION_DOT": 8.33e-06, "MEAN_MOTION_DDOT": 0}, "tle": {"line1": "1 35706U 93036AQB 25348.88120992  .00000833  00000+0  69767-3 0  9994", "line2": "2 35706  73.8893  59.2702 0340467 108.6738 255.1655 13.65929011620917"}}, "geometry": {"type": "Point", "coordinates": [35.70257057334588, -53.07759964625643]}}, {"type": "Feature", "properties": {"norad_id": 35711, "name": "COSMOS 2251 DEB", "group": "cosmos-2251-debris", "lat": -67.34606297875642, "lon": 78.52009342734203, "alt_km": 658.9817777716671, "timestamp": "2025-12-15T10:55:21.541313+00:00", "meta": {"OBJECT_NAME": "COSMOS 2251 DEB", "OBJECT_ID": "1993-036AQG", "EPOCH": "2025-12-14T09:09:24.990336", "MEAN_MOTION": 14.63807482, "ECCENTRICITY": 0.00854419, "INCLINATION": 74.0452, "RA_OF_ASC_NODE": 217.3086, "ARG_OF_PERICENTER": 317.9092, "MEAN_ANOMALY": 41.5532, "EPHEMERIS_TYPE": 0, "CLASSIFICATION_TYPE": "U", "NORAD_CAT_ID": 35711, "ELEMENT_SET_NO": 999, "REV_AT_EPOCH": 87795, "BSTAR": 0.00027048668, "MEAN_MOTION_DOT": 1.455e-05, "MEAN_MOTION_DDOT": 0}, "tle": {"line1": "1 35711U 93036AQG 25348.38153924  .00001455  00000+0  27049-3 0  9994", "line2": "2 35711  74.0452 217.3086 0085441 317.9092  41.5532 14.63807482877950"}}, "geometry": {"type": "Point", "coordinates": [78.52009342734203, -67.34606297875642]}}, {"type": "Feature", "properties": {"norad_id": 35716, "name": "COSMOS 2251 DEB", "group": "cosmos-2251-debris", "lat": -59.159970618400685, "lon": 160.26806079028785, "alt_km": 701.8783829760232, "timestamp": "2025-12-15T10:55:21.541323+00:00", "meta": {"OBJECT_NAME": "COSMOS 2251 DEB", "OBJECT_ID": "1993-036AQM", "EPOCH": "2025-12-14T20:28:26.855040", "MEAN_MOTION": 14.6008889, "ECCENTRICITY": 0.00888416, "INCLINATION": 73.9921, "RA_OF_ASC_NODE": 190.159, "ARG_OF_PERICENTER": 30.6001, "MEAN_ANOMALY": 344.0625, "EPHEMERIS_TYPE": 0, "CLASSIFICATION_TYPE": "U", "NORAD_CAT_ID": 35716, "ELEMENT_SET_NO": 999, "REV_AT_EPOCH": 87658, "BSTAR": 0.00010459192, "MEAN_MOTION_DOT": 4.99e-06, "MEAN_MOTION_DDOT": 0}, "tle": {"line1": "1 35716U 93036AQM 25348.85308860  .00000499  00000+0  10459-3 0  9996", "line2": "2 35716  73.9921 190.1590 0088841  30.6001 344.0625 14.60088890876581"}}, "geometry": {"type": "Point", "coordinates": [160.26806079028785, -59.159970618400685]}}, {"type": "Feature", "properties": {"norad_id": 35717, "name": "COSMOS 2251 DEB", "group": "cosmos-2251-debris", "lat": -35.1207857173143, "lon": 44.04980493239552, "alt_km": 814.2021674889902, "timestamp": "2025-12-15T10:55:21.541333+00:00", "meta": {"OBJECT_NAME": "COSMOS 2251 DEB", "OBJECT_ID": "1993-036AQN", "EPOCH": "2025-12-11T09:07:06.227616", "MEAN_MOTION": 14.38476212, "ECCENTRICITY": 0.00768139, "INCLINATION": 74.1604, "RA_OF_ASC_NODE": 219.9837, "ARG_OF_PERICENTER": 79.9617, "MEAN_ANOMALY": 281.0194, "EPHEMERIS_TYPE": 0, "CLASSIFICATION_TYPE": "U", "NORAD_CAT_ID": 35717, "ELEMENT_SET_NO": 999, "REV_AT_EPOCH": 74080, "BSTAR": 0.0019460313, "MEAN_MOTION_DOT": 6.131e-05, "MEAN_MOTION_DDOT": 0}, "tle": {"line1": "1 35717U 93036AQN 25345.37993319  .00006131  00000+0  19460-2 0  9999", "line2": "2 35717  74.1604 219.9837 0076813  79.9617 281.0194 14.38476212740802"}}, "geometry": {"type": "Point", "coordinates": [44.04980493239552, -35.1207857173143]}}, {"type": "Feature", "properties": {"norad_id": 35718, "name": "COSMOS 2251 DEB", "group": "cosmos-2251-debris", "lat": -67.8764855048115, "lon": -10.504199902922235, "alt_km": 670.9418751333287, "timestamp": "2025-12-15T10:55:21.541343+00:00", "meta": {"OBJECT_NAME": "COSMOS 2251 DEB", "OBJECT_ID": "1993-036AQP", "EPOCH": "2025-12-14T15:47:09.025440", "MEAN_MOTION": 14.68701356, "ECCENTRICITY": 0.00106898, "INCLINATION": 74.0305, "RA_OF_ASC_NODE": 126.2581, "ARG_OF_PERICENTER": 174.8201, "MEAN_ANOMALY": 185.3082, "EPHEMERIS_TYPE": 0, "CLASSIFICATION_TYPE": "U", "NORAD_CAT_ID": 35718, "ELEMENT_SET_NO": 999, "REV_AT_EPOCH": 65868, "BSTAR": 0.0014363225, "MEAN_MOTION_DOT": 8.35e-05, "MEAN_MOTION_DDOT": 0}, "tle": {"line1": "1 35718U 93036AQP 25348.65774335  .00008350  00000+0  14363-2 0  9991", "line2": "2 35718  74.0305 126.2581 0010689 174.8201 185.3082 14.68701356658688"}}, "geometry": {"type": "Point", "coordinates": [-10.504199902922235, -67.8764855048115]}}, {"type": "Feature", "properties": {"norad_id": 35721, "name": "COSMOS 2251 DEB", "group": "cosmos-2251-debris", "lat": -56.56985082273507, "lon": 146.88555135284142, "alt_km": 684.4002678373372, "timestamp": "2025-12-15T10:55:21.541353+00:00", "meta": {"OBJECT_NAME": "COSMOS 2251 DEB", "OBJECT_ID": "1993-036AQS", "EPOCH": "2025-12-09T19:36:39.465216", "MEAN_MOTION": 14.34317214, "ECCENTRICITY": 0.01465875, "INCLINATION": 73.9489, "RA_OF_ASC_NODE": 183.1196, "ARG_OF_PERICENTER": 330.1589, "MEAN_ANOMALY": 29.126, "EPHEMERIS_TYPE": 0, "CLASSIFICATION_TYPE": "U", "NORAD_CAT_ID": 35721, "ELEMENT_SET_NO": 999, "REV_AT_EPOCH": 57747, "BSTAR": 0.0018396061, "MEAN_MOTION_DOT": 5.808e-05, "MEAN_MOTION_DDOT": 0}, "tle": {"line1": "1 35721U 93036AQS 25343.81712344  .00005808  00000+0  18396-2 0  9995", "line2": "2 35721  73.9489 183.1196 0146587 330.1589  29.1260 14.34317214577479"}}, "geometry": {"type": "Point", "coordinates": [146.88555135284142, -56.56985082273507]}}, {"type": "Feature", "properties": {"norad_id": 35724, "name": "COSMOS 2251 DEB", "group": "cosmos-2251-debris", "lat": 60.25638058833332, "lon": 87.44051344267011, "alt_km": 654.8854884170751, "timestamp": "2025-12-15T10:55:21.541364+00:00", "meta": {"OBJECT_NAME": "COSMOS 2251 DEB", "OBJECT_ID": "1993-036AQV", "EPOCH": "2025-12-14T14:38:29.128704", "MEAN_MOTION": 14.58202811, "ECCENTRICITY": 0.00589744, "INCLINATION": 74.0327, "RA_OF_ASC_NODE": 299.1196, "ARG_OF_PERICENTER": 92.2459, "MEAN_ANOMALY": 268.546, "EPHEMERIS_TYPE": 0, "CLASSIFICATION_TYPE": "U", "NORAD_CAT_ID": 35724, "ELEMENT_SET_NO": 999, "REV_AT_EPOCH": 87556, "BSTAR": 0.00032335502, "MEAN_MOTION_DOT": 1.498e-05, "MEAN_MOTION_DDOT": 0}, "tle": {"line1": "1 35724U 93036AQV 25348.61005936  .00001498  00000+0  32336-3 0  9995", "line2": "2 35724  74.0327 299.1196 0058974  92.2459 268.5460 14.58202811875561"}}, "geometry": {"type": "Point", "coordinates": [87.44051344267011, 60.25638058833332]}}, {"type": "Feature", "properties": {"norad_id": 35759, "name": "COSMOS 2251 DEB", "group": "cosmos-2251-debris", "lat": 36.99385168969695, "lon": -136.72149926635365, "alt_km": 655.7759399009865, "timestamp": "2025-12-15T10:55:21.541374+00:00", "meta": {"OBJECT_NAME": "COSMOS 2251 DEB", "OBJECT_ID": "1993-036ARD", "EPOCH": "2025-12-14T08:31:26.334624", "MEAN_MOTION": 14.64897978, "ECCENTRICITY": 0.00770764, "INCLINATION": 74.0373, "RA_OF_ASC_NODE": 212.9398, "ARG_OF_PERICENTER": 330.845, "MEAN_ANOMALY": 28.8424, "EPHEMERIS_TYPE": 0, "CLASSIFICATION_TYPE": "U", "NORAD_CAT_ID": 35759, "ELEMENT_SET_NO": 999, "REV_AT_EPOCH": 66159, "BSTAR": 0.00033685155, "MEAN_MOTION_DOT": 1.848e-05, "MEAN_MOTION_DDOT": 0}, "tle": {"line1": "1 35759U 93036ARD 25348.35516591  .00001848  00000+0  33685-3 0  9995", "line2": "2 35759  74.0373 212.9398 0077076 330.8450  28.8424 14.64897978661597"}}, "geometry": {"type": "Point", "coordinates": [-136.72149926635365, 36.99385168969695]}}]}